CCSDS_OEM_VERS = 2.0  
CREATION_DATE  = 2026-03-24T10:46:41
ORIGINATOR     = ESOC/OPS-GFA                            
 
 



META_START
OBJECT_NAME          = LISA                                    
OBJECT_ID            = -1000                                   
CENTER_NAME          = SUN                     
REF_FRAME            = EME2000 
TIME_SYSTEM          = TCB
START_TIME           = 2036-12-23T00:00:30.346418            
STOP_TIME            = 2047-09-05T13:39:27.499551            
INTERPOLATION        = HERMITE                                 
INTERPOLATION_DEGREE = 7                                       
META_STOP

2046-10-06T21:00:55.628514     1.48331744361312747e+08   -2.29522634479117878e+07   -9.02981053526973352e+06    4.75882154882611630e+00    2.69348698450768609e+01    1.14762291400627614e+01   -5.78987158448291093e-06    8.96085204481225562e-07    3.52532229275563197e-07
2046-10-07T17:21:19.201009     1.48664667921781570e+08   -2.09776625129055306e+07   -8.18856423885723948e+06    4.33435020089061851e+00    2.69976683992339375e+01    1.15008428934384188e+01   -5.80377322753621653e-06    8.19136297660554490e-07    3.19744880093190509e-07
2046-10-08T13:41:42.773503     1.48966474005871564e+08   -1.89986697072678730e+07   -7.34560360260907188e+06    3.90890482063163880e+00    2.70548252767421964e+01    1.15230529933805759e+01   -5.81647534741489851e-06    7.41993249283280874e-07    2.86880885404558731e-07
2046-10-09T10:02:06.345999     1.49237094450127423e+08   -1.70156986516956873e+07   -6.50110483488999680e+06    3.48257336513893723e+00    2.71063268325808480e+01    1.15428540709103142e+01   -5.82797460021481446e-06    6.64671656471200465e-07    2.53946893585594719e-07
2046-10-10T06:22:29.918494     1.49476467538784087e+08   -1.50291639233723134e+07   -5.65524451903018355e+06    3.05544402879981369e+00    2.71521605656567822e+01    1.15602412446159715e+01   -5.83826784547418154e-06    5.87187165820574489e-07    2.20949573038747935e-07
2046-10-11T02:42:53.490988     1.49684538070952326e+08   -1.30394809633948281e+07   -4.80819957363269664e+06    2.62760522909522987e+00    2.71923151221803820e+01    1.15752101220179622e+01   -5.84735212657068876e-06    5.09555466524739540e-07    1.87895609364704715e-07
2046-10-11T23:03:17.063484     1.49861257457053274e+08   -1.10470659789170474e+07   -3.96014721049041487e+06    2.19914559398474285e+00    2.72267802985069878e+01    1.15877568007141996e+01   -5.85522464685382627e-06    4.31792282635313035e-07    1.54791702188770985e-07
2046-10-12T19:15:25.431224     1.50005706239172757e+08   -9.06583293796641007e+06   -3.11700822850975813e+06    1.77305675405939200e+00    2.72553716571306879e+01    1.15978175763092235e+01   -5.86184239726156281e-06    3.54440532253952191e-07    1.21868913647379863e-07
2046-10-13T15:27:33.798964     1.50119149846452802e+08   -7.08272515568966046e+06   -2.27322464634895045e+06    1.34653023621065993e+00    2.72783336711114188e+01    1.16054825819858838e+01   -5.86726029020142896e-06    2.76990224456901178e-07    8.89101236534863717e-08
2046-10-14T11:39:42.166705     1.50201559648774922e+08   -5.09815227773764729e+06   -1.42897078758902755e+06    9.19653371624847171e-01    2.72956597383626551e+01    1.16107494403381502e+01   -5.87147649737780740e-06    1.99456926141511790e-07    5.59219601503915434e-08
2046-10-15T07:51:50.534445     1.50252913317021579e+08   -3.11252441165259294e+06   -5.84421141199322417e+05    4.92513617975895102e-01    2.73073443903815836e+01    1.16136162565758454e+01   -5.87448937273337831e-06    1.21856242968610134e-07    2.29110666845636705e-08
2046-10-16T04:03:58.902186     1.50273194879891485e+08   -1.12625202527823113e+06    2.60249681939642876e+05    6.51985453671350967e-02    2.73133832949511977e+01    1.16140816196049244e+01   -5.87629747377969341e-06    4.42038161344041879e-08   -1.01158990926919258e-08
2046-10-17T00:16:07.269926     1.50262394756657779e+08    8.60254146002052352e+05    1.10486698864022829e+06   -3.62204179126228265e-01    2.73137732586092206e+01    1.16121446030002620e+01   -5.87689957885616181e-06   -3.34846807962568250e-08   -4.31522668753975266e-08
2046-10-17T20:28:15.637666     1.50220509770871639e+08    2.84658318518419936e+06    1.94925604000754934e+06   -7.89606808022000894e-01    2.73085122288888797e+01    1.16078047658747288e+01   -5.87629470032510375e-06   -1.11193544996506611e-07   -7.61913551054609764e-08
2046-10-18T16:40:24.005407     1.50147543150010616e+08    4.83232407468625158e+06    2.79324208589614183e+06   -1.21692153080739729e+00    2.72975992963359282e+01    1.16010621536479643e+01   -5.87448209369005952e-06   -1.88907047424199735e-07   -1.09226472327665292e-07
2046-10-19T12:52:32.373148     1.50043504516070247e+08    6.81706577448156103e+06    3.63665039808429126e+06   -1.64406049183103198e+00    2.72810346963062855e+01    1.15919172987183607e+01   -5.87146126266036796e-06   -2.66609435808137027e-07   -1.42250918496934631e-07
2046-10-20T09:04:40.740888     1.49908409872098327e+08    8.80039729928889871e+06    4.47930630302710272e+06   -2.07093580841466895e+00    2.72588198105486264e+01    1.15803712210416769e+01   -5.86723196012193740e-06   -3.44284937575719267e-07   -1.75257986238505389e-07
2046-10-21T05:16:49.108628     1.49742281589670539e+08    1.07819077967864163e+07    5.32103521504908800e+06   -2.49745958888877695e+00    2.72309571685763423e+01    1.15664254286197608e+01   -5.86179418507203074e-06   -4.21917762718111294e-07   -2.08240962059621047e-07
2046-10-22T01:28:57.476369     1.49545148402306676e+08    1.27611866288156658e+07    6.16166267083736695e+06   -2.92354395025609914e+00    2.71974504488331554e+01    1.15500819179028564e+01   -5.85514817548448677e-06   -4.99492106596544127e-07   -2.41193127514127153e-07
2046-10-22T21:41:05.844109     1.49317045409826100e+08    1.47378234575424902e+07    7.00101436609630287e+06   -3.34910103518723545e+00    2.71583044796568700e+01    1.15313431741089278e+01   -5.84729439702736574e-06   -5.76992152691897968e-07   -2.74107760320497770e-07
2046-10-23T17:53:14.211850     1.49058014098641843e+08    1.67114083385416828e+07    7.83891619522469677e+06   -3.77404302805251302e+00    2.71135252400455009e+01    1.15102121714634702e+01   -5.83823352785178441e-06   -6.54402075286073354e-07   -3.06978135429475269e-07
2046-10-24T14:05:22.579590     1.48768102382992059e+08    1.86815318227713332e+07    8.67519429487618804e+06   -4.19828216969406309e+00    2.70631198602302341e+01    1.14866923733632937e+01   -5.82796643922952291e-06   -7.31706042092201040e-07   -3.39797526047487510e-07
2046-10-25T10:17:30.947330     1.48447364672107726e+08    2.06477850694043115e+07    9.50967509226417542e+06   -4.62173077064240179e+00    2.70070966220595601e+01    1.14607877324676988e+01   -5.81649417202099345e-06   -8.08888216823357873e-07   -3.72559204611350443e-07
2046-10-26T06:24:34.447154     1.48097399276549935e+08    2.26015449994152412e+07    1.03386998833027333e+07   -5.04253183467265220e+00    2.69457350022160291e+01    1.14326262193297534e+01   -5.80387414065190136e-06   -8.85610112319293394e-07   -4.05119528710141411e-07
2046-10-27T02:31:37.946978     1.47716992149242312e+08    2.45506598310004398e+07    1.11655997891747020e+07   -5.46237573803200416e+00    2.68788223291034640e+01    1.14021090882153366e+01   -5.79006215971260660e-06   -9.62179873783134919e-07   -4.37609306336960330e-07
2046-10-27T22:38:41.446803     1.47306215757364452e+08    2.64947279692047462e+07    1.19902044068052191e+07   -5.88117622528723416e+00    2.68063701861800610e+01    1.13692416883731831e+01   -5.77506018500115946e-06   -1.03858188668381143e-06   -4.70021908634380358e-07
2046-10-28T18:45:44.946627     1.46865148762588531e+08    2.84333486657855958e+07    1.28123437236244064e+07   -6.29884718952940403e+00    2.67283912879638947e+01    1.13340298491915359e+01   -5.75887036598994774e-06   -1.11480053228908443e-06   -5.02350705808468131e-07
2046-10-29T14:52:48.446451     1.46393876051158547e+08    3.03661221291392259e+07    1.36318481644196026e+07   -6.71530268714244549e+00    2.66448994800550487e+01    1.12964798801471549e+01   -5.74149506556732254e-06   -1.19082019532009776e-06   -5.34589070352439596e-07
2046-10-30T10:59:51.946276     1.45892488743078589e+08    3.22926496209119931e+07    1.44485486324406546e+07   -7.13045695385880762e+00    2.65559097386320815e+01    1.12565985705327964e+01   -5.72293687594959076e-06   -1.26662527081854771e-06   -5.66730379944095291e-07
2046-10-31T07:06:55.446100     1.45361084184708416e+08    3.42125335422105417e+07    1.52622765460148528e+07   -7.54422442182918829e+00    2.64614381694795640e+01    1.12143931889866000e+01   -5.70319863077445005e-06   -1.34220017022959741e-06   -5.98768020018402451e-07
2046-11-01T03:13:58.945924     1.44799765929063857e+08    3.61253775123053119e+07    1.60728638719201162e+07   -7.95651973742926977e+00    2.63615020066035619e+01    1.11698714828469683e+01   -5.68228341336127530e-06   -1.41752932669866481e-06   -6.30695386014361809e-07
2046-11-01T23:21:02.445748     1.44208643708120942e+08    3.80307864427221268e+07    1.68801431567650214e+07   -8.36725777952640826e+00    2.62561196104919148e+01    1.11230416773564933e+01   -5.66019456115132550e-06   -1.49259719958289527e-06   -6.62505885296581674e-07
2046-11-02T19:28:05.945573     1.43587833401421487e+08    3.99283666096165180e+07    1.76839475576242842e+07   -8.77635367792928989e+00    2.61453104660761717e+01    1.10739124747384814e+01   -5.63693566631609636e-06   -1.56738827817725081e-06   -6.94192938751449793e-07
2046-11-03T15:35:09.445397     1.42937457005279124e+08    4.18177257273254991e+07    1.84841108731783256e+07   -9.18372283174340609e+00    2.60290951804521349e+01    1.10224930531696526e+01   -5.61251057254937865e-06   -1.64188708465676971e-06   -7.25749982058672422e-07
